[{"OBJECT_NAME":"STARLINK-3511","OBJECT_ID":"2022-016AQ","EPOCH":"2026-03-09T21:20:54.137472","MEAN_MOTION":15.08842842,"ECCENTRICITY":0.00012467,"INCLINATION":53.2182,"RA_OF_ASC_NODE":308.1552,"ARG_OF_PERICENTER":94.3109,"MEAN_ANOMALY":265.8026,"EPHEMERIS_TYPE":0,"CLASSIFICATION_TYPE":"U","NORAD_CAT_ID":51752,"ELEMENT_SET_NO":999,"REV_AT_EPOCH":22373,"BSTAR":-1.2868255e-5,"MEAN_MOTION_DOT":-4.93e-6,"MEAN_MOTION_DDOT":0},{"OBJECT_NAME":"COSMOS 374","OBJECT_ID":"1970-089A","EPOCH":"2026-03-09T23:19:35.282496","MEAN_MOTION":12.96748954,"ECCENTRICITY":0.09746559,"INCLINATION":62.9356,"RA_OF_ASC_NODE":4.6625,"ARG_OF_PERICENTER":50.8577,"MEAN_ANOMALY":317.503,"EPHEMERIS_TYPE":0,"CLASSIFICATION_TYPE":"U","NORAD_CAT_ID":4594,"ELEMENT_SET_NO":999,"REV_AT_EPOCH":65604,"BSTAR":0.00040579113,"MEAN_MOTION_DOT":1.091e-5,"MEAN_MOTION_DDOT":0}]
